{"fetched_at":"2026-07-13T07:48:41.766Z","source":"https://celestrak.org/NORAD/elements/gp.php?NAME=SENTINEL&FORMAT=JSON","constellation":"sentinel-3","records":[{"OBJECT_NAME":"SENTINEL-3A","OBJECT_ID":"2016-011A","EPOCH":"2026-07-12T19:32:06.596736","CLASSIFICATION_TYPE":"U","MEAN_MOTION":14.26739357,"ECCENTRICITY":0.0001371,"INCLINATION":98.6238,"RA_OF_ASC_NODE":260.8281,"ARG_OF_PERICENTER":90.9122,"MEAN_ANOMALY":269.2216,"EPHEMERIS_TYPE":0,"NORAD_CAT_ID":41335,"ELEMENT_SET_NO":999,"REV_AT_EPOCH":54171,"BSTAR":0.00003588,"MEAN_MOTION_DOT":4.3e-7,"MEAN_MOTION_DDOT":0},{"OBJECT_NAME":"SENTINEL-3B","OBJECT_ID":"2018-039A","EPOCH":"2026-07-12T18:53:25.467648","CLASSIFICATION_TYPE":"U","MEAN_MOTION":14.26735933,"ECCENTRICITY":0.0001083,"INCLINATION":98.6237,"RA_OF_ASC_NODE":260.9506,"ARG_OF_PERICENTER":119.4324,"MEAN_ANOMALY":240.6964,"EPHEMERIS_TYPE":0,"NORAD_CAT_ID":43437,"ELEMENT_SET_NO":999,"REV_AT_EPOCH":42777,"BSTAR":0.000019507,"MEAN_MOTION_DOT":4e-8,"MEAN_MOTION_DDOT":0}]}
